OBJECT_NAME,OBJECT_ID,EPOCH,MEAN_MOTION,ECCENTRICITY,INCLINATION,RA_OF_ASC_NODE,ARG_OF_PERICENTER,MEAN_ANOMALY,EPHEMERIS_TYPE,CLASSIFICATION_TYPE,NORAD_CAT_ID,ELEMENT_SET_NO,REV_AT_EPOCH,BSTAR,MEAN_MOTION_DOT,MEAN_MOTION_DDOT
SIRION PATHFINDER-2,2018-099B,2026-05-17T09:22:50.221920,15.14244237,.00099973,97.4274,187.1834,54.6375,305.5790,0,U,43759,999,40796,.18295942E-3,.3283E-4,0
CORVUS BC4,2018-099K,2026-05-17T13:18:24.031584,15.12222606,.0010053,97.4088,181.4340,105.3842,254.8500,0,U,43767,999,40777,.16578E-3,.2803E-4,0
M2 PATHFINDER,2020-037E,2026-05-17T18:53:47.882400,15.04532713,.0009927,97.8162,328.6796,253.2680,106.7456,0,U,45727,999,32092,.89942E-4,.1197E-4,0
NETSAT-4,2020-068U,2026-05-17T00:03:42.968160,15.42764332,.00075209,97.8609,142.7654,79.7395,280.4699,0,U,46504,999,31096,.33254954E-3,.14468E-3,0
NETSAT-3,2020-068V,2026-05-17T05:51:29.424384,15.41541908,.00075405,97.8658,141.2828,92.0292,268.1817,0,U,46505,999,31091,.3026692E-3,.12629E-3,0
NETSAT-1,2020-068W,2026-05-17T19:23:20.762880,15.33844518,.0006985,97.8750,136.5721,109.8304,250.3691,0,U,46506,999,31064,.26243E-3,.8509E-4,0
NETSAT-2,2020-068X,2026-05-17T17:31:39.679104,15.44615099,.000627,97.8625,143.3412,100.2554,259.9400,0,U,46507,999,31103,.30402E-3,.14067E-3,0
GREENCUBE (IO-117),2022-080E,2026-05-17T12:34:27.165792,6.42583321,.00088126,70.1432,308.9131,296.7194,63.2564,0,U,53109,999,9009,0,-.3E-7,0
SITRO-AIS 5 (KATYS),2023-091L,2026-05-17T20:03:56.016000,15.28700066,.0011189,97.5075,201.4618,201.6607,158.4161,0,U,57176,999,15970,.296E-3,.8199E-4,0
SITRO-AIS 6 (CHIRKIN),2023-091AC,2026-05-17T19:29:09.534624,15.25308246,.0011311,97.5083,200.7143,205.2090,154.8597,0,U,57192,999,15965,.26342E-3,.6572E-4,0
SITRO-AIS 8 (ANOKHIN),2023-091AD,2026-05-17T20:08:50.667648,15.31246683,.0010512,97.5071,202.9338,197.0110,163.0780,0,U,57193,999,15980,.30887E-3,.9259E-4,0
SITRO-AIS 7 (FARTUSHNIY),2023-091AE,2026-05-17T19:24:57.316608,15.25010751,.0011144,97.5080,200.5516,206.2341,153.8333,0,U,57194,999,15964,.24736E-3,.6111E-4,0
SITRO-AIS 10 (BURDAEV),2023-091AK,2026-05-17T20:45:47.923200,15.37378497,.0007501,97.5094,207.7098,169.9696,190.1699,0,U,57199,999,16010,.37453E-3,.13658E-3,0
SITRO-AIS 9 (SHCHUKIN),2023-091AM,2026-05-17T19:36:43.924320,15.36921160,.0007693,97.5093,207.4138,170.6288,189.5101,0,U,57201,999,16008,.36178E-3,.12996E-3,0
SITRO-AIS 12 (SMIRENNIY),2023-091AQ,2026-05-17T19:31:24.114720,15.37207332,.0007481,97.5105,207.8583,164.8449,195.3021,0,U,57204,999,16010,.3586E-3,.13E-3,0
SITRO-AIS 11 (SHEFFER),2023-091AU,2026-05-17T20:02:23.500608,15.37603831,.0007389,97.5103,208.1084,164.7441,195.4027,0,U,57208,999,16012,.37536E-3,.13788E-3,0
SITRO-AIS 25,2024-039R,2026-05-17T19:44:34.360224,14.93290135,.0147383,95.3920,214.2293,74.6120,287.1334,0,U,59066,999,12019,.2872E-3,.3691E-4,0
SITRO-AIS 26,2024-039S,2026-05-17T19:40:39.175968,14.93092396,.0147693,95.3920,214.1313,75.1503,286.6028,0,U,59067,999,12018,.28417E-3,.3635E-4,0
SITRO-AIS 27,2024-039T,2026-05-17T20:46:26.895648,14.93503549,.0146608,95.3922,214.4206,73.6653,288.0637,0,U,59068,999,12021,.2505E-3,.3227E-4,0
SITRO-AIS 28,2024-039U,2026-05-17T20:14:58.176096,14.93540534,.0146679,95.3926,214.4509,73.6023,288.1270,0,U,59071,999,12021,.23009E-3,.2965E-4,0
GRBBETA,2024-128C,2026-05-17T11:43:58.019808,15.06365563,.00448127,61.9901,323.9502,128.3151,232.1985,0,U,60237,999,10164,.19525748E-3,.2731E-4,0
OOV-CUBE (TUBSAT-30),2024-128F,2026-05-17T05:54:32.475744,15.02602654,.00484735,61.9947,333.4501,127.0171,233.5371,0,U,60240,999,10146,.12520601E-3,.1499E-4,0
ROBUSTA-3A (MEDITERRANEE),2024-128J,2026-05-17T18:26:32.471232,15.11156902,.0045493,61.9866,315.7760,122.3077,238.2437,0,U,60243,999,10182,.34027E-3,.5653E-4,0
LASARSAT,2024-247Q,2026-05-17T12:42:56.740032,15.44352225,.00052585,44.9755,74.2193,153.8869,206.2286,0,U,62391,999,7857,.41588281E-3,.19309E-3,0
CROCUBE,2024-247T,2026-05-17T19:41:56.752800,15.45978572,.000504,44.9731,70.3803,159.7993,200.3096,0,U,62394,999,7864,.47129E-3,.2321E-3,0
FORESAIL-1 PRIME,2025-276DS,2026-05-17T11:41:50.871840,15.18394728,.00022462,97.4209,211.3257,172.0596,188.0674,0,U,66778,999,2574,.16816419E-3,.3391E-4,0
KNACKSAT-2,1998-067XZ,2026-05-17T13:44:34.478592,15.57155138,.0012359,51.6299,88.1318,86.3962,273.8443,0,U,67683,999,1550,.36873E-3,.26971E-3,0
