{"n":43759,"c":9,"l1":"1 43759U 2018-099 26137.39085904  0.00003283  00000-0  182959-4 0  9999","l2":"2 43759  97.4274 187.1834 0009997  54.6375 305.5790 15.14244237407967","nm":"SIRION PATHFINDER-2"},{"n":43767,"c":9,"l1":"1 43767U 2018-099 26137.55444480  0.00002803  00000-0  165780-4 0  9994","l2":"2 43767  97.4088 181.4340 0010053 105.3842 254.8500 15.12222606407774","nm":"CORVUS BC4"},{"n":45727,"c":9,"l1":"1 45727U 2020-037 26137.78735975  0.00001197  00000-0  899420-5 0  9995","l2":"2 45727  97.8162 328.6796 0009927 253.2680 106.7456 15.04532713320920","nm":"M2 PATHFINDER"},{"n":46504,"c":9,"l1":"1 46504U 2020-068 26137.00258065  0.00014468  00000-0  332550-4 0  9998","l2":"2 46504  97.8609 142.7654 0007521  79.7395 280.4699 15.42764332310968","nm":"NETSAT-4"},{"n":46505,"c":9,"l1":"1 46505U 2020-068 26137.24409056  0.00012629  00000-0  302669-4 0  9998","l2":"2 46505  97.8658 141.2828 0007541  92.0292 268.1817 15.41541908310917","nm":"NETSAT-3"},{"n":46506,"c":9,"l1":"1 46506U 2020-068 26137.80787919  0.00008509  00000-0  262430-4 0  9991","l2":"2 46506  97.8750 136.5721 0006985 109.8304 250.3691 15.33844518310649","nm":"NETSAT-1"},{"n":46507,"c":9,"l1":"1 46507U 2020-068 26137.73032036  0.00014067  00000-0  304020-4 0  9995","l2":"2 46507  97.8625 143.3412 0006270 100.2554 259.9400 15.44615099311032","nm":"NETSAT-2"},{"n":53109,"c":9,"l1":"1 53109U 2022-080 26137.52392552 -0.00000003  00000-0  00000-0 0  9999","l2":"2 53109  70.1432 308.9131 0008813 296.7194  63.2564  6.42583321 90098","nm":"GREENCUBE (IO-117)"},{"n":57176,"c":9,"l1":"1 57176U 2023-091 26137.83606500  0.00008199  00000-0  296000-4 0  9999","l2":"2 57176  97.5075 201.4618 0011189 201.6607 158.4161 15.28700066159708","nm":"SITRO-AIS 5 (KATYS)"},{"n":57192,"c":9,"l1":"1 57192U 2023-091 26137.81191590  0.00006572  00000-0  263420-4 0  9996","l2":"2 57192  97.5083 200.7143 0011311 205.2090 154.8597 15.25308246159651","nm":"SITRO-AIS 6 (CHIRKIN)"},{"n":57193,"c":9,"l1":"1 57193U 2023-091 26137.83947531  0.00009259  00000-0  308870-4 0  9997","l2":"2 57193  97.5071 202.9338 0010512 197.0110 163.0780 15.31246683159808","nm":"SITRO-AIS 8 (ANOKHIN)"},{"n":57194,"c":9,"l1":"1 57194U 2023-091 26137.80899671  0.00006111  00000-0  247360-4 0  9996","l2":"2 57194  97.5080 200.5516 0011144 206.2341 153.8333 15.25010751159643","nm":"SITRO-AIS 7 (FARTUSHNIY)"},{"n":57199,"c":9,"l1":"1 57199U 2023-091 26137.86513800  0.00013658  00000-0  374530-4 0  9998","l2":"2 57199  97.5094 207.7098 0007501 169.9696 190.1699 15.37378497160106","nm":"SITRO-AIS 10 (BURDAEV)"},{"n":57201,"c":9,"l1":"1 57201U 2023-091 26137.81717505  0.00012996  00000-0  361780-4 0  9992","l2":"2 57201  97.5093 207.4138 0007693 170.6288 189.5101 15.36921160160086","nm":"SITRO-AIS 9 (SHCHUKIN)"},{"n":57204,"c":9,"l1":"1 57204U 2023-091 26137.81347354  0.00013000  00000-0  358600-4 0  9990","l2":"2 57204  97.5105 207.8583 0007481 164.8449 195.3021 15.37207332160108","nm":"SITRO-AIS 12 (SMIRENNIY)"},{"n":57208,"c":9,"l1":"1 57208U 2023-091 26137.83499421  0.00013788  00000-0  375360-4 0  9994","l2":"2 57208  97.5103 208.1084 0007389 164.7441 195.4027 15.37603831160121","nm":"SITRO-AIS 11 (SHEFFER)"},{"n":59066,"c":9,"l1":"1 59066U 2024-039 26137.82261991  0.00003691  00000-0  287200-4 0  9996","l2":"2 59066  95.3920 214.2293 0147383  74.6120 287.1334 14.93290135120193","nm":"SITRO-AIS 25"},{"n":59067,"c":9,"l1":"1 59067U 2024-039 26137.81989786  0.00003635  00000-0  284170-4 0  9996","l2":"2 59067  95.3920 214.1313 0147693  75.1503 286.6028 14.93092396120183","nm":"SITRO-AIS 26"},{"n":59068,"c":9,"l1":"1 59068U 2024-039 26137.86558906  0.00003227  00000-0  250500-4 0  9995","l2":"2 59068  95.3922 214.4206 0146608  73.6653 288.0637 14.93503549120217","nm":"SITRO-AIS 27"},{"n":59071,"c":9,"l1":"1 59071U 2024-039 26137.84372889  0.00002965  00000-0  230090-4 0  9991","l2":"2 59071  95.3926 214.4509 0146679  73.6023 288.1270 14.93540534120219","nm":"SITRO-AIS 28"},{"n":60237,"c":9,"l1":"1 60237U 2024-128 26137.48886596  0.00002731  00000-0  195257-4 0  9997","l2":"2 60237  61.9901 323.9502 0044813 128.3151 232.1985 15.06365563101643","nm":"GRBBETA"},{"n":60240,"c":9,"l1":"1 60240U 2024-128 26137.24620920  0.00001499  00000-0  125206-4 0  9999","l2":"2 60240  61.9947 333.4501 0048474 127.0171 233.5371 15.02602654101462","nm":"OOV-CUBE (TUBSAT-30)"},{"n":60243,"c":9,"l1":"1 60243U 2024-128 26137.76843138  0.00005653  00000-0  340270-4 0  9993","l2":"2 60243  61.9866 315.7760 0045493 122.3077 238.2437 15.11156902101821","nm":"ROBUSTA-3A (MEDITERRANEE)"},{"n":62391,"c":9,"l1":"1 62391U 2024-247 26137.52982338  0.00019309  00000-0  415883-4 0  9997","l2":"2 62391  44.9755  74.2193 0005259 153.8869 206.2286 15.44352225 78570","nm":"LASARSAT"},{"n":62394,"c":9,"l1":"1 62394U 2024-247 26137.82079574  0.00023210  00000-0  471290-4 0  9992","l2":"2 62394  44.9731  70.3803 0005040 159.7993 200.3096 15.45978572 78645","nm":"CROCUBE"},{"n":66778,"c":9,"l1":"1 66778U 2025-276 26137.48739434  0.00003391  00000-0  168164-4 0  9996","l2":"2 66778  97.4209 211.3257 0002246 172.0596 188.0674 15.18394728 25742","nm":"FORESAIL-1 PRIME"},{"n":67683,"c":0,"l1":"1 67683U 1998-067 26137.57262127  0.00026971  00000-0  368730-4 0  9998","l2":"2 67683  51.6299  88.1318 0012359  86.3962 273.8443 15.57155138 15500","nm":"KNACKSAT-2"}